[{"OBJECT_NAME":"STARLINK-3115","OBJECT_ID":"2021-104AR","EPOCH":"2026-03-09T21:15:33.734304","MEAN_MOTION":15.0883997,"ECCENTRICITY":0.00011727,"INCLINATION":53.2161,"RA_OF_ASC_NODE":218.241,"ARG_OF_PERICENTER":86.4469,"MEAN_ANOMALY":273.6658,"EPHEMERIS_TYPE":0,"CLASSIFICATION_TYPE":"U","NORAD_CAT_ID":49447,"ELEMENT_SET_NO":999,"REV_AT_EPOCH":23880,"BSTAR":5.845197e-6,"MEAN_MOTION_DOT":-1.95e-6,"MEAN_MOTION_DDOT":0},{"OBJECT_NAME":"TLV R\/B","OBJECT_ID":"2023-188B","EPOCH":"2026-03-09T16:54:55.723104","MEAN_MOTION":15.27880264,"ECCENTRICITY":0.01149043,"INCLINATION":46.9277,"RA_OF_ASC_NODE":152.866,"ARG_OF_PERICENTER":233.4436,"MEAN_ANOMALY":125.5857,"EPHEMERIS_TYPE":0,"CLASSIFICATION_TYPE":"U","NORAD_CAT_ID":58501,"ELEMENT_SET_NO":999,"REV_AT_EPOCH":12559,"BSTAR":0.00038559521,"MEAN_MOTION_DOT":0.0001266,"MEAN_MOTION_DDOT":0}]
